#aV2006  7  9  0  0   .00000000      96 DD+AD WGS84 FIT  NGA
## 1383       .00000000   900.00000000 53925  .0000000000000
+   29     1  2  3  4  5  6  7  8  9 10 11 13 14 15 16 17 18
+         19 20 21 22 23 24 25 26 27 28 29 30  0  0  0  0  0
+          0  0  0  0  0  0  0  0  0  0  0  0  0  0  0  0  0
+          0  0  0  0  0  0  0  0  0  0  0  0  0  0  0  0  0
+          0  0  0  0  0  0  0  0  0  0  0  0  0  0  0  0  0
++         0  0  0  0  0  0  0  0  0  0  0  0  0  0  0  0  0
++         0  0  0  0  0  0  0  0  0  0  0  0  0  0  0  0  0
++         0  0  0  0  0  0  0  0  0  0  0  0  0  0  0  0  0
++         0  0  0  0  0  0  0  0  0  0  0  0  0  0  0  0  0
++         0  0  0  0  0  0  0  0  0  0  0  0  0  0  0  0  0
%c cc cc ccc ccc cccc cccc cccc cccc ccccc ccccc ccccc ccccc
%c cc cc ccc ccc cccc cccc cccc cccc ccccc ccccc ccccc ccccc
%f  0.0000000  0.000000000  0.00000000000  0.000000000000000
%f  0.0000000  0.000000000  0.00000000000  0.000000000000000
%i    0    0    0    0      0      0      0      0         0
%i    0    0    0    0      0      0      0      0         0
/*      NGA, ST. LOUIS,MO.                                  
/*   EPHEMERIS COMPUTED FROM  3 DAYS OF DATA                
/* CCCCCCCCCCCCCCCCCCCCCCCCCCCCCCCCCCCCCCCCCCCCCCCCCCCCCCCCC
/* CCCCCCCCCCCCCCCCCCCCCCCCCCCCCCCCCCCCCCCCCCCCCCCCCCCCCCCCC
*  2006  7  9  2 45   .00000000                                                 
P  1  19215.268407  12216.736283 -13527.180498     64.419990                    
V  1   8580.898931  15254.180738  25547.409427       .021076                    
P  2 -16066.518851  -1210.261732 -21336.350890     12.003014                    
V  2   9770.362151 -24731.931658  -6241.803142       .035511                    
P  3  20901.208270   5952.934349  15305.131677    150.218442                    
V  3  11316.626223  16344.967482 -21261.912906       .907009                    
P  4 -10226.891618 -13226.161280 -20598.819961    270.706933                    
V  4  11741.383071 -23442.828953   9585.438118       .077628                    
P  5 -19331.885827  13295.686763 -12486.779577    206.044775                    
V  5 -15925.109479    254.599178  25507.557755       .348723                    
P  6   2039.130402  21144.063902 -15705.592034    584.606821                    
V  6 -14784.542256 -14305.919024 -20986.377149       .071403                    
P  7  18535.792652  18781.204480   2747.864073    541.245500                    
V  7   -813.356686   4755.779159 -30982.426917      -.006749                    
P  8  -3149.000212 -19961.443291  16870.293209    -71.819885                    
V  8  11064.220530 -18905.383092 -20533.818315      -.014059                    
P  9 -14975.694764  18842.523552  10355.753310     27.292078                    
V  9   2420.986214 -14145.243247  28024.728846       .013328                    
P 10 -26570.021368    578.290629  -2945.582853     86.279541                    
V 10   3359.342372  -2465.487113 -31545.118792       .005288                    
P 11  13266.924272 -20772.422245   9498.948417    338.189640                    
V 11   1210.010690  13106.014432  27034.257532       .022394                    
P 13  -2176.382026 -21175.628761 -16013.016543     75.711021                    
V 13  12584.670677  15686.047479 -22535.058946       .030416                    
P 14  15510.386247  21600.756168    276.742488    -10.274995                    
V 14  -1743.399330    933.717383  32264.864202       .008154                    
P 15   3331.125150  19734.401293  17100.181948    641.789152                    
V 15 -12086.228441  18711.293958 -19486.274363       .063367                    
P 16  25372.475430   2512.133351  -7566.630372     55.278353                    
V 16  -9357.755880   3566.809972 -29742.824842       .027978                    
P 17 -15234.614190 -21791.927373   1179.117801    100.169201                    
V 17   3117.257256   -457.051540  31615.927901       .002625                    
P 18   -913.579805  15393.478759  21712.480804   -242.375716                    
V 18 -27302.483664   1708.866696  -2683.177284      -.015097                    
P 19  15296.889111  -4178.917069  21423.593281      -.579411                    
V 19  14392.761108  22789.817103  -5805.705983       .023894                    
P 20  16816.105075 -13344.305150 -15716.905472    -24.430696                    
V 20  19903.312752   -545.001910  21912.371063       .004145                    
P 21  -2908.280740  23967.305405  10498.791436     40.509963                    
V 21  -8777.134407  10727.949020 -27641.151172       .022906                    
P 22  13840.870224  12554.016233  19035.491896    114.414528                    
V 22 -23710.603070   3028.378647  15348.075129       .037015                    
P 23   8052.183163 -13717.154410 -21341.265387    138.579320                    
V 23  16665.375522  21097.079349  -7473.147012      -.004260                    
P 24  -2629.353907 -20520.722921 -16270.777239     19.242435                    
V 24  11234.991740 -18110.030406  20994.418742       .029028                    
P 25  13655.305004   6833.093432 -21326.294500    105.781474                    
V 25  -8943.662695  26597.408865   2880.719724       .755510                    
P 26 -16121.238900    856.075842  20816.659588   -173.379981                    
V 26 -15340.830222 -22399.768795 -10194.309041      -.129538                    
P 27   2025.557498 -24861.676198   9237.265146     57.092790                    
V 27   6266.529743  -9426.579161 -28947.968493       .017988                    
P 28 -10261.542172 -13569.831594  20770.172655     23.539587                    
V 28  25433.158221  -3260.347976  10243.861722      -.007957                    
P 29 -17801.908553  -1600.347804  19973.440965    627.457050                    
V 29 -14406.595006 -20073.420725 -14339.151236       .030927                    
P 30  -7266.381335  15933.334921 -20223.015548      3.083252                    
V 30 -25024.982323   2688.632092  11387.476700       .011964                    
EOF
